[{"OBJECT_NAME":"TIANMU-1 11","OBJECT_ID":"2023-205A","EPOCH":"2026-03-10T00:04:04.804896","MEAN_MOTION":15.25886825,"ECCENTRICITY":0.00089558,"INCLINATION":97.3549,"RA_OF_ASC_NODE":92.1484,"ARG_OF_PERICENTER":7.2987,"MEAN_ANOMALY":352.838,"EPHEMERIS_TYPE":0,"CLASSIFICATION_TYPE":"U","NORAD_CAT_ID":58645,"ELEMENT_SET_NO":999,"REV_AT_EPOCH":12239,"BSTAR":0.00031315232,"MEAN_MOTION_DOT":7.963e-5,"MEAN_MOTION_DDOT":0},{"OBJECT_NAME":"STARLINK-35555","OBJECT_ID":"2025-259D","EPOCH":"2026-03-09T21:43:03.284832","MEAN_MOTION":15.27594706,"ECCENTRICITY":0.00024707,"INCLINATION":43.0001,"RA_OF_ASC_NODE":273.1798,"ARG_OF_PERICENTER":269.0113,"MEAN_ANOMALY":91.0456,"EPHEMERIS_TYPE":0,"CLASSIFICATION_TYPE":"U","NORAD_CAT_ID":66425,"ELEMENT_SET_NO":999,"REV_AT_EPOCH":1952,"BSTAR":0.00097245524,"MEAN_MOTION_DOT":0.00026607,"MEAN_MOTION_DDOT":0}]
